SATELIOT_4              
1 60537U 24149BX  25215.63015833  .00002441  00000+0  22906-3 0  9997
2 60537  97.7078 290.9109 0002923  52.6589 307.4898 14.94887918 52502
PICO-02A021             
1 60538U 24149BY  25215.68701290  .00004672  00000+0  39234-3 0  9992
2 60538  97.7139 292.5769 0002928  89.2261 270.9297 14.98806521 52107
ICEYE-X43               
1 60539U 24149BZ  25215.68585289  .00003227  00000+0  28471-3 0  9997
2 60539  97.7103 291.9048 0004299  66.9384 293.2290 14.97101979 52568
HAWK-10A                
1 60540U 24149CA  25215.82489430  .00002202  00000+0  20649-3 0  9997
2 60540  97.7220 291.9325 0004908  67.5217 292.6523 14.95009708 52542
UMBRA-09                
1 60541U 24149CB  25215.49754666  .00011209  00000+0  77218-3 0  9998
2 60541  97.7226 294.7978 0000612 326.6616  33.4572 15.06022354 52713
QPS-SAR-8 (AMATERU-IV)  
1 60542U 24149CC  25215.81551970  .00004526  00000+0  37314-3 0  9995
2 60542  97.7114 292.9510 0003919  89.9721 270.1951 14.99531918 52635
ARCTIC WEATHER SATELLITE
1 60543U 24149CD  25215.93524062  .00000963  00000+0  10594-3 0  9993
2 60543  97.7162 289.8141 0003674  86.7186 273.4452 14.89814113 52061
CAPELLA-15 (ACADIA-5)   
1 60544U 24149CE  25215.92657848  .00006140  00000+0  60303-3 0  9998
2 60544  97.7110 291.1271 0005685  51.1838 308.9888 14.92509973 52537
HAWK-10B                
1 60545U 24149CF  25215.69090389  .00002234  00000+0  20940-3 0  9997
2 60545  97.7148 291.4633 0007030  79.6245 280.5768 14.95010297 52527
ICEYE-X39               
1 60546U 24149CG  25215.65022164  .00002257  00000+0  20055-3 0  9992
2 60546  97.7118 291.9567 0005689  71.4380 288.7459 14.97116832 52569
UMBRA-10                
1 60547U 24149CH  25215.82930732  .00010157  00000+0  70017-3 0  9992
2 60547  97.7234 295.1289 0000986  48.8677 311.2634 15.06023394 52779
ICEYE-X33               
1 60548U 24149CJ  25215.94355027  .00002491  00000+0  21277-3 0  9990
2 60548  97.7136 292.9631 0005203  74.1471 286.0325 14.98566107 52644
ICEYE-X40               
1 60549U 24149CK  25215.92176137  .00000750  00000+0  71124-4 0  9995
2 60549  97.7133 292.2884 0006279  68.0997 292.0892 14.96499585 52609
SATELIOT_1              
1 60550U 24149CL  25215.63579911  .00002606  00000+0  23632-3 0  9994
2 60550  97.7080 291.6585 0008331  66.4313 293.7782 14.96173786 52550
BRO-14                  
1 60551U 24149CM  25215.74460968  .00001171  00000+0  11235-3 0  9990
2 60551  97.7197 291.8982 0008283  82.2348 277.9812 14.94979116 52549
SATELIOT_3              
1 60552U 24149CN  25215.68479642  .00002373  00000+0  21545-3 0  9993
2 60552  97.7138 292.1990 0007055  78.3934 281.8079 14.96213189 52576
BRO-15                  
1 60553U 24149CP  25215.93993278  .00000731  00000+0  71652-4 0  9999
2 60553  97.7126 291.9455 0009483  72.5737 287.6520 14.95225504 52580
UM5-RIBAT               
1 60554U 24149CQ  25215.68643599  .00003107  00000+0  26713-3 0  9997
2 60554  97.7077 292.4215 0009199  65.7657 294.4526 14.98111502 52605
UM5-EOSAT               
1 60555U 24149CR  25215.94411314  .00002878  00000+0  24508-3 0  9999
2 60555  97.7142 293.1483 0008584  70.8909 289.3242 14.98551191 52653
KANYINI                 
1 60556U 24149CS  25215.90543488  .00014823  00000+0  48844-3 0  9996
2 60556  97.4058 294.0478 0000935 313.0127  47.1036 15.31565142 53636
TROOP-F2                
1 60557U 24149CT  25215.50065458  .00025255  00000+0  65923-3 0  9997
2 60557  97.3998 295.5019 0002720 287.3417  72.7531 15.38792466 53716
FLOCK 4BE-35            
1 60558U 24149CU  25215.67283097  .00007768  00000+0  28056-3 0  9992
2 60558  97.4077 293.8344 0002851  12.4564 347.6745 15.28754762 53596
FLOCK 4BE-5             
1 60559U 24149CV  25215.16078989  .00008260  00000+0  29995-3 0  9990
2 60559  97.4134 293.4594 0003522  15.2832 344.8513 15.28552120 53517
FLOCK 4BE-12            
1 60560U 24149CW  25215.49701632  .00009294  00000+0  32169-3 0  9991
2 60560  97.4042 293.8650 0004360   5.7182 354.4107 15.30083742 53593
FLOCK 4BE-3             
1 60561U 24149CX  25215.68793604  .00008811  00000+0  30854-3 0  9996
2 60561  97.4017 293.8288 0004857 356.7952   3.3257 15.29717671 53610
HYPERFIELD-1A           
1 60562U 24149CY  25215.90456220  .00005278  00000+0  20982-3 0  9997
2 60562  97.4110 293.3125 0005657  11.0183 349.1178 15.25712811 53571
FLOCK 4BE-19            
1 60563U 24149CZ  25215.46153644  .00009687  00000+0  32735-3 0  9990
2 60563  97.4046 294.0811 0004855   4.8464 355.2823 15.30847447 53600
PICO-02C023             
1 60564U 24149DA  25215.68080228  .00032220  00000+0  14455-2 0  9999
2 60564  97.7042 298.1537 0002542 162.8542 197.2779 15.21129943 52970
PTD-4 (LISA-T)          
1 60565U 24149DB  25215.93147686  .00012724  00000+0  83564-3 0  9995
2 60565  97.7229 295.5897 0004985  70.7369 289.4398 15.07757157 52794
PICO-02G027             
1 60566U 24149DC  25215.20206479  .00039591  00000+0  17293-2 0  9998
2 60566  97.7065 297.9522 0002238 168.3926 191.7362 15.21998090 52926
PICO-02F026             
1 60567U 24149DD  25215.17863252  .00039338  00000+0  17135-2 0  9997
2 60567  97.7127 298.1613 0001501 176.7043 183.4202 15.22095438 52910
PICO-02I029             
1 60568U 24149DE  25215.67308579  .00032796  00000+0  14395-2 0  9995
2 60568  97.7064 298.4037 0002163 162.1065 198.0247 15.21876092 52982
PICO-02D024             
1 60569U 24149DF  25215.63412854  .00035021  00000+0  15205-2 0  9999
2 60569  97.7129 298.6336 0001725 170.2834 189.8435 15.22233847 52989
PICO-02H028             
1 60570U 24149DG  25215.68513287  .00032549  00000+0  14346-2 0  9995
2 60570  97.7067 298.3762 0002165 167.2339 192.8951 15.21735731 52982
PICO-02B022             
1 60571U 24149DH  25215.66857813  .00051130  00000+0  18289-2 0  9997
2 60571  97.7100 299.9448 0002519 283.1317  76.9641 15.28619389 53072
PICO-02E025             
1 60572U 24149DJ  25215.82660688  .00040236  00000+0  15991-2 0  9990
2 60572  97.7203 299.7446 0001171 273.8369  86.2734 15.25189772 53059
ION SCV-012             
1 60573U 24149DK  25215.73444276  .00000921  00000+0  91949-4 0  9990
2 60573  97.7131 291.0304 0004713  71.3103 288.8628 14.93888435 52507
GNOMES-5                
1 60574U 24149DL  25215.93419665  .00003118  00000+0  27128-3 0  9995
2 60574  97.7148 292.5499 0003389  74.5095 285.6501 14.97668765 52613
HAWK-10C                
1 60575U 24149DM  25215.82506409  .00002237  00000+0  20975-3 0  9991
2 60575  97.7073 291.2466 0004449  57.7602 302.4050 14.95009006 52540
LEMUR-2-AHMED-ASRAR     
1 60576U 24149DN  25215.15578564  .00009207  00000+0  67127-3 0  9993
2 60576  97.7276 293.8791 0002611  39.6990 320.4426 15.03947883 52623
LEMUR-2-LLOYD           
1 60577U 24149DP  25215.65305050  .00006695  00000+0  52576-3 0  9997
2 60577  97.7027 293.0140 0008132 131.8487 228.3432 15.01208557 52627
LEMUR-2-SQUIRRELCOMM    
1 60578U 24149DQ  25215.64208227  .00006910  00000+0  53642-3 0  9990
2 60578  97.6952 293.2648 0007454  44.9923 315.1904 15.01645292 52657
LEMUR-2-SIERRINI        
1 60579U 24149DR  25215.64887125  .00007504  00000+0  57370-3 0  9993
2 60579  97.7088 293.4301 0005908 167.2149 192.9227 15.02206661 52640
SEDNA-1                 
1 60580U 24149DS  25215.92960686  .00004734  00000+0  37132-3 0  9996
2 60580  97.6971 293.5831 0006859   7.2426 352.8896 15.01417766 52691
STARLINK-31844          
1 60583U 24150A   25215.78650278 -.00000198  00000+0  54315-5 0  9993
2 60583  53.1595 238.8691 0001103  90.4007 269.7121 15.30188079 54687
STARLINK-32204          
1 60584U 24150B   25215.35569424  .00000579  00000+0  31686-4 0  9996
2 60584  53.1593 241.1541 0001146  87.5533 272.5599 15.30187943 54618
STARLINK-32130          
1 60585U 24150C   25215.77078674  .00000348  00000+0  23871-4 0  9996
2 60585  53.1585 239.4804 0001107 103.6141 256.4983 15.30191648 54596
STARLINK-32173          
1 60586U 24150D   25215.47364595  .00000246  00000+0  20442-4 0  9992
2 60586  53.1585 240.4667 0000861  56.0765 304.0317 15.30188397 54638
STARLINK-31911          
1 60587U 24150E   25215.76128648  .00000133  00000+0  16617-4 0  9996
2 60587  53.1580 239.4192 0001049  87.9420 272.1700 15.30193118 54598
STARLINK-31994          
1 60588U 24150F   25215.33563269 -.00000251  00000+0  36400-5 0  9997
2 60588  53.1590 241.0260 0001323 101.6962 258.4188 15.30184994 54538
STARLINK-32169          
1 60589U 24150G   25215.78239548 -.00000195  00000+0  55465-5 0  9996
2 60589  53.1589 239.5521 0001176  90.1347 269.9789 15.30187874 54673
STARLINK-32209          
1 60590U 24150H   25215.34829289  .00000772  00000+0  38214-4 0  9999
2 60590  53.1592 241.1064 0001285  77.3653 282.7491 15.30191528 54616
STARLINK-32170          
1 60591U 24150J   25215.77711837 -.00000462  00000+0 -34704-5 0  9995
2 60591  53.1588 239.5186 0001142  96.1503 263.9628 15.30189149 54599
STARLINK-31497          
1 60592U 24150K   25215.36201096  .00000133  00000+0  16627-4 0  9998
2 60592  53.1589 241.1922 0001046  86.9853 273.1268 15.30194653 54618
STARLINK-32161          
1 60593U 24150L   25215.47681063 -.00001063  00000+0 -23795-4 0  9996
2 60593  53.1591 240.4857 0001107  83.0398 277.0728 15.30182102 54554
STARLINK-32210          
1 60594U 24150M   25215.78968239 -.00001899  00000+0 -52049-4 0  9995
2 60594  53.1589 238.8827 0001189  77.8847 282.2287 15.30175124 54688
STARLINK-32202          
1 60595U 24150N   25215.76762642  .00000085  00000+0  15008-4 0  9992
2 60595  53.1598 239.4586 0001547  75.4997 284.6176 15.30186834 54678
STARLINK-31930          
1 60596U 24150P   25215.33879649  .00000431  00000+0  26681-4 0  9996
2 60596  53.1592 241.0475 0001331 113.6827 246.4314 15.30187461 54539
STARLINK-32162          
1 60597U 24150Q   25215.78028508 -.00000067  00000+0  98715-5 0  9990
2 60597  53.1588 239.5385 0001147  91.8131 268.3001 15.30188173 54679
